NORAD_CAT_ID,OBJECT_NAME,OBJECT_TYPE,EPOCH,MEAN_MOTION,ECCENTRICITY,INCLINATION,RA_OF_ASC_NODE,ARG_OF_PERICENTER,MEAN_ANOMALY,BSTAR,MEAN_MOTION_DOT,MEAN_MOTION_DDOT,TLE_LINE0,TLE_LINE1,TLE_LINE2,SEMIMAJOR_AXIS,PERIOD,APOGEE,PERIGEE,DECAYED
54072.0,STARLINK-5144,PAYLOAD,2024-04-11 16:25:53,15.08838262,0.0001384,53.2197,232.8334,80.7672,279.3477,3.52e-05,2.72e-06,0.0,0 STARLINK-5144,1 54072U 22136X   24102.68464391  .00000272  00000-0  35200-4 0  9997,2 54072  53.2197 232.8334 0001384  80.7672 279.3477 15.08838262 82101,6917.886,95.438,540.708,538.793,0.0
54072.0,STARLINK-5144,PAYLOAD,2024-04-12 14:41:15,15.08879718,0.0001336,53.2169,228.6712,82.3613,277.753,-0.0004199,-6.972e-05,0.0,0 STARLINK-5144,1 54072U 22136X   24103.61198959 -.00006972  00000-0 -41990-3 0  9992,2 54072  53.2169 228.6712 0001336  82.3613 277.7530 15.08879718 81767,6917.759,95.435,540.548,538.7,0.0
54072.0,STARLINK-5144,PAYLOAD,2024-04-13 12:56:40,15.08840281,0.0001456,53.2171,224.5082,73.219,286.8962,0.00019903,2.881e-05,0.0,0 STARLINK-5144,1 54072U 22136X   24104.53936180  .00002881  00000-0  19903-3 0  9992,2 54072  53.2171 224.5082 0001456  73.2190 286.8962 15.08840281 82389,6917.88,95.438,540.752,538.737,0.0
54072.0,STARLINK-5144,PAYLOAD,2024-04-13 14:32:03,15.08845279,0.0001442,53.2172,224.2106,73.234,286.881,0.00016408,2.325e-05,0.0,0 STARLINK-5144,1 54072U 22136X   24104.60559979  .00002325  00000-0  16408-3 0  9997,2 54072  53.2172 224.2106 0001442  73.2340 286.8810 15.08845279 81918,6917.864,95.437,540.727,538.732,0.0
54072.0,STARLINK-5144,PAYLOAD,2024-04-14 12:47:29,15.08812266,0.0001353,53.2185,220.048,94.2102,265.9045,0.00049529,7.597e-05,0.0,0 STARLINK-5144,1 54072U 22136X   24105.53297508  .00007597  00000-0  49529-3 0  9993,2 54072  53.2185 220.0480 0001353  94.2102 265.9045 15.08812266 82538,6917.965,95.439,540.766,538.894,0.0
54072.0,STARLINK-5144,PAYLOAD,2024-04-14 14:22:50,15.08860609,0.0001707,53.2191,219.7514,100.0967,260.0218,-0.00021255,-3.671e-05,0.0,0 STARLINK-5144,1 54072U 22136X   24105.59919703 -.00003671  00000-0 -21255-3 0  9994,2 54072  53.2191 219.7514 0001707 100.0967 260.0218 15.08860609 82549,6917.817,95.436,540.863,538.502,0.0
54072.0,STARLINK-5144,PAYLOAD,2024-04-15 12:38:14,15.0884305,0.0001487,53.2185,215.5883,89.9086,270.2076,3.2474e-05,2.29e-06,0.0,0 STARLINK-5144,1 54072U 22136X   24106.52656222  .00000229  00000-0  32474-4 0  9992,2 54072  53.2185 215.5883 0001487  89.9086 270.2076 15.08843050 82688,6917.871,95.437,540.765,538.707,0.0
54072.0,STARLINK-5144,PAYLOAD,2024-04-15 14:13:37,15.08846529,0.000163,53.219,215.2894,100.163,259.9546,4.567e-05,4.39e-06,0.0,0 STARLINK-5144,1 54072U 22136X   24106.59279885  .00000439  00000-0  45670-4 0  9990,2 54072  53.2190 215.2894 0001630 100.1630 259.9546 15.08846529 82213,6917.86,95.437,540.853,538.598,0.0
54072.0,STARLINK-5144,PAYLOAD,2024-04-15 17:24:23,15.08852872,0.000165,53.2187,214.6915,105.8894,254.228,1.3846e-06,-2.66e-06,0.0,0 STARLINK-5144,1 54072U 22136X   24106.72527508 -.00000266  00000-0  13846-5 0  9993,2 54072  53.2187 214.6915 0001650 105.8894 254.2280 15.08852872 82718,6917.841,95.437,540.847,538.565,0.0
54072.0,STARLINK-5144,PAYLOAD,2024-04-16 06:07:29,15.08836977,0.0001661,53.2191,212.3175,93.007,267.1113,5.4002e-05,5.71e-06,0.0,0 STARLINK-5144,1 54072U 22136X   24107.25520637  .00000571  00000-0  54002-4 0  9994,2 54072  53.2191 212.3175 0001661  93.0070 267.1113 15.08836977 82796,6917.89,95.438,540.904,538.606,0.0
54072.0,STARLINK-5144,PAYLOAD,2024-04-16 14:04:24,15.08866664,0.0001681,53.2183,210.8342,106.652,253.4657,-0.00020215,-3.506e-05,0.0,0 STARLINK-5144,1 54072U 22136X   24107.58639194 -.00003506  00000-0 -20215-3 0  9990,2 54072  53.2183 210.8342 0001681 106.6520 253.4657 15.08866664 82842,6917.799,95.436,540.827,538.501,0.0
54072.0,STARLINK-5144,PAYLOAD,2024-04-17 12:19:47,15.08850956,0.0001365,53.2178,206.6657,105.9169,254.1973,0.00011412,1.529e-05,0.0,0 STARLINK-5144,1 54072U 22136X   24108.51374947  .00001529  00000-0  11412-3 0  9996,2 54072  53.2178 206.6657 0001365 105.9169 254.1973 15.08850956 82989,6917.847,95.437,540.656,538.768,0.0
54072.0,STARLINK-5144,PAYLOAD,2024-04-17 13:55:11,15.08829346,0.0001167,53.2169,206.3688,85.897,274.2156,-0.00020842,-3.602e-05,0.0,0 STARLINK-5144,1 54072U 22136X   24108.57999890 -.00003602  00000-0 -20842-3 0  9995,2 54072  53.2169 206.3688 0001167  85.8970 274.2156 15.08829346 82510,6917.913,95.438,540.585,538.971,0.0
54072.0,STARLINK-5144,PAYLOAD,2024-04-18 12:10:37,15.0881849,0.0002282,53.2161,202.2046,47.4239,312.6946,-0.0002514,-4.285e-05,0.0,0 STARLINK-5144,1 54072U 22136X   24109.50738049 -.00004285  00000-0 -25140-3 0  9990,2 54072  53.2161 202.2046 0002282  47.4239 312.6946 15.08818490 83137,6917.946,95.439,541.39,538.232,0.0
54072.0,STARLINK-5144,PAYLOAD,2024-04-19 05:39:51,15.08835613,0.0001249,53.2165,198.9305,98.3999,261.7135,0.00012509,1.703e-05,0.0,0 STARLINK-5144,1 54072U 22136X   24110.23601377  .00001703  00000-0  12509-3 0  9990,2 54072  53.2165 198.9305 0001249  98.3999 261.7135 15.08835613 83242,6917.894,95.438,540.623,538.895,0.0
54072.0,STARLINK-5144,PAYLOAD,2024-04-19 12:01:23,15.08858172,0.000121,53.217,197.7405,91.8452,268.2678,0.00051862,7.98e-05,0.0,0 STARLINK-5144,1 54072U 22136X   24110.50096300  .00007980  00000-0  51862-3 0  9992,2 54072  53.2170 197.7405 0001210  91.8452 268.2678 15.08858172 83289,6917.825,95.436,540.527,538.853,0.0
54072.0,STARLINK-5144,PAYLOAD,2024-04-20 11:52:10,15.08834658,0.0001294,53.2172,193.289,115.7108,244.4018,-0.00011459,-2.111e-05,0.0,0 STARLINK-5144,1 54072U 22136X   24111.49456965 -.00002111  00000-0 -11459-3 0  9999,2 54072  53.2172 193.2890 0001294 115.7108 244.4018 15.08834658 83430,6917.897,95.438,540.657,538.867,0.0
54072.0,STARLINK-5144,PAYLOAD,2024-04-21 11:42:58,15.08833972,0.0001751,53.2178,188.8242,107.251,252.8674,-8.6824e-05,-1.669e-05,0.0,0 STARLINK-5144,1 54072U 22136X   24112.48818232 -.00001669  00000-0 -86824-4 0  9994,2 54072  53.2178 188.8242 0001751 107.2510 252.8674 15.08833972 83101,6917.899,95.438,540.975,538.552,0.0
54072.0,STARLINK-5144,PAYLOAD,2024-04-21 14:53:45,15.08837211,0.0001733,53.2175,188.227,113.06,247.0575,-6.9285e-05,-1.391e-05,0.0,0 STARLINK-5144,1 54072U 22136X   24112.62066005 -.00001391  00000-0 -69285-4 0  9997,2 54072  53.2175 188.2270 0001733 113.0600 247.0575 15.08837211 83609,6917.889,95.438,540.953,538.555,0.0
54072.0,STARLINK-5144,PAYLOAD,2024-04-22 05:12:14,15.08823821,0.0001571,53.2174,185.5493,78.4465,281.6704,0.00042229,6.436e-05,0.0,0 STARLINK-5144,1 54072U 22136X   24113.21682930  .00006436  00000-0  42229-3 0  9995,2 54072  53.2174 185.5493 0001571  78.4465 281.6704 15.08823821 83697,6917.93,95.439,540.882,538.708,0.0
54072.0,STARLINK-5144,PAYLOAD,2024-04-22 09:58:23,15.08833641,0.0001721,53.2175,184.6621,104.5942,255.5241,0.00040563,6.172e-05,0.0,0 STARLINK-5144,1 54072U 22136X   24113.41554468  .00006172  00000-0  40563-3 0  9997,2 54072  53.2175 184.6621 0001721 104.5942 255.5241 15.08833641 83720,6917.9,95.438,540.955,538.574,0.0
54072.0,STARLINK-5144,PAYLOAD,2024-04-22 11:33:46,15.08837909,0.0001769,53.2179,184.3637,105.5057,254.6131,0.00040944,6.234e-05,0.0,0 STARLINK-5144,1 54072U 22136X   24113.48178247  .00006234  00000-0  40944-3 0  9993,2 54072  53.2179 184.3637 0001769 105.5057 254.6131 15.08837909 83255,6917.887,95.438,540.976,538.528,0.0
54072.0,STARLINK-5144,PAYLOAD,2024-04-23 11:24:32,15.08841378,0.0001721,53.2185,179.9037,102.823,257.2955,0.00017792,2.545e-05,0.0,0 STARLINK-5144,1 54072U 22136X   24114.47538101  .00002545  00000-0  17792-3 0  9998,2 54072  53.2185 179.9037 0001721 102.8230 257.2955 15.08841378 83884,6917.876,95.437,540.932,538.551,0.0
54072.0,STARLINK-5144,PAYLOAD,2024-04-24 12:50:43,15.08847938,0.0001738,53.2197,175.143,92.5049,267.6142,2.7455e-05,1.49e-06,0.0,0 STARLINK-5144,1 54072U 22136X   24115.53522208  .00000149  00000-0  27455-4 0  9993,2 54072  53.2197 175.1430 0001738  92.5049 267.6142 15.08847938 84043,6917.856,95.437,540.923,538.519,0.0
54072.0,STARLINK-5144,PAYLOAD,2024-04-25 03:09:11,15.08842667,0.000178,53.2197,172.477,78.6894,281.4298,7.1668e-05,8.53e-06,0.0,0 STARLINK-5144,1 54072U 22136X   24116.13138531  .00000853  00000-0  71668-4 0  9999,2 54072  53.2197 172.4770 0001780  78.6894 281.4298 15.08842667 84130,6917.872,95.437,540.969,538.506,0.0
54072.0,STARLINK-5144,PAYLOAD,2024-04-25 11:06:07,15.08843936,0.000172,53.2184,170.9858,81.3229,278.7958,5.3258e-05,5.6e-06,0.0,0 STARLINK-5144,1 54072U 22136X   24116.46258335  .00000560  00000-0  53258-4 0  9990,2 54072  53.2184 170.9858 0001720  81.3229 278.7958 15.08843936 83707,6917.868,95.437,540.923,538.543,0.0
54072.0,STARLINK-5144,PAYLOAD,2024-04-26 12:32:16,15.08854278,0.0001567,53.2178,166.2252,87.997,272.1202,0.00012475,1.699e-05,0.0,0 STARLINK-5144,1 54072U 22136X   24117.52241368  .00001699  00000-0  12475-3 0  9995,2 54072  53.2178 166.2252 0001567  87.9970 272.1202 15.08854278 84342,6917.837,95.437,540.786,538.618,0.0
54072.0,STARLINK-5144,PAYLOAD,2024-04-27 02:50:44,15.08847471,0.0001546,53.2173,163.5513,91.9978,268.1191,0.0001252,1.706e-05,0.0,0 STARLINK-5144,1 54072U 22136X   24118.11857613  .00001706  00000-0  12520-3 0  9997,2 54072  53.2173 163.5513 0001546  91.9978 268.1191 15.08847471 84436,6917.858,95.437,540.792,538.653,0.0
54072.0,STARLINK-5144,PAYLOAD,2024-04-27 09:12:17,15.0885312,0.0001325,53.2156,162.3581,100.2812,259.8329,8.605e-05,1.082e-05,0.0,0 STARLINK-5144,1 54072U 22136X   24118.38353062  .00001082  00000-0  86050-4 0  9992,2 54072  53.2156 162.3581 0001325 100.2812 259.8329 15.08853120 83993,6917.84,95.437,540.622,538.789,0.0
54072.0,STARLINK-5144,PAYLOAD,2024-04-27 20:19:59,15.08845792,0.00012,53.2149,160.279,103.1112,257.0014,5.1914e-05,5.39e-06,0.0,0 STARLINK-5144,1 54072U 22136X   24118.84721288  .00000539  00000-0  51914-4 0  9999,2 54072  53.2149 160.2790 0001200 103.1112 257.0014 15.08845792 84067,6917.863,95.437,540.558,538.898,0.0
